#dP2021  7 12  0  0  0.00000000      96 __u+U ITR00 FIT  IAC
## 2166  86400.00000000   900.00000000 59407 0.0000000000000
+  117   C06C07C08C09C10C11C12C13C14C16C19C20C21C22C23C24C25
+        C26C27C28C29C30C32C33C34C35C36C37C38C39C40C41C42C43
+        C44C45C46E01E02E03E04E05E07E08E09E11E12E13E14E15E18
+        E19E21E24E25E26E27E30E31E33E36G01G02G03G04G05G06G07
+        G08G09G10G11G12G13G14G15G16G17G18G19G20G21G22G23G24
+        G25G26G27G28G29G30G31G32J01J02J03R01R02R03R04R05R07
+        R08R09R11R12R13R14R15R16R17R18R19R20R21R22R24  0  0
++         8  7  8  6  6  6  6  8  6  8  6  8  7  7  7  7  6
++         7  8  8  7  8  6  7  7  8  6  6  8  7  5  7  8  6
++         7  8  8  6  7  8  6  6  7  7  6  6  7  7  6  6  5
++         5  6  6  4  7  5  6  6  8  6  6  7  6  5  6  5  5
++         6  5  7  7  5  6  5  6  6  4  5  7  5  7  6  6  5
++         6  6  6  6  6  5  6  6  8  7 10  8  6  8  6  5  8
++         8  9  8  5  7  7  6  5  7  6  6  8  6  7  6  0  0
%c M  cc GPS ccc cccc cccc cccc cccc ccccc ccccc ccccc ccccc
%c cc cc ccc ccc cccc cccc cccc cccc ccccc ccccc ccccc ccccc
%f  0.0000000  0.000000000  0.00000000000  0.000000000000000
%f  0.0000000  0.000000000  0.00000000000  0.000000000000000
%i    0    0    0    0      0      0      0      0         0
%i    0    0    0    0      0      0      0      0         0
/* INFORMATION & ANALYSIS CENTER (IAC)      ULTRA-RAPID DATA
/* S/V CLOCKS ARE ALIGNED TO GNSS TIME                      
/* G:C1WC2W R:C1PC2P E:C1XC5X C:C2IC6I J:C1CC2S             
/* PCV:IGS14_2163 OL/AL:FES2004  NONE     YN ORB:CoN CLK:CoN
*  2021 07 12 20  0  0.00000000
PC06 -21176.009252  35453.089269   7592.293183    616.376914
PC07  -6829.536474  32979.267271  25957.699175    128.637433
PC08 -16608.441983  18081.037637 -34239.452047   -903.637660
PC09 -10571.564684  35013.550324  20905.520375    378.985212
PC10   3760.752988  38399.399343  17776.875182    -19.497545
PC11 -22307.824745  12062.039815  11751.203450    453.810887
PC12 -15906.473881  -4673.418347  22478.867561    813.795398
PC13  -2511.112739  22420.657448 -35530.889845    334.193499
PC14 -15395.098355   4025.842546 -22899.130480    812.918072
PC16 -19847.737636  35962.198629   9144.519469   -922.294370
PC19  10800.496099 -14458.877226  21303.858219    906.610417
PC20  17166.560763   5200.530258  21402.458277   -847.040493
PC21 -13530.176591 -22794.138931  -8662.898546   -935.498559
PC22  -2004.642990 -26385.567653   8810.610086   -948.361772
PC23   -607.300985  16438.393096  22554.879631   -968.655191
PC24 -27426.006241  -4827.371512   1962.833943   -936.006241
PC25 -19280.354351   9198.354983  17964.228051   -886.877758
PC26 -19849.101616 -14036.717394 -13733.479469    879.716768
PC27   9049.862300  13347.778096 -22796.156259    563.305789
PC28  -8148.537335  22719.488824 -14015.366616    -51.385214
PC29  19771.481078 -19469.037961  -2976.031581    418.620146
PC30  20540.160094  -4033.161596 -18473.373316    473.850124
PC32  13724.991200  22713.541914   8670.399179   -924.493498
PC33 -10755.115739  14495.902750 -21282.453833   -942.491911
PC34 -20800.229865   4702.311184  17975.918414   -629.574914
PC35   7669.507610 -23094.781621  13675.684161   -190.278455
PC36  19790.384736  -8497.167993 -17715.329653   -732.436507
PC37  18710.390232  14824.229347  14466.289366   -865.612828
PC38 -14958.682262  21044.220178 -33351.458513    161.299399
PC39 -16951.458346  37300.112587   9634.020454     32.360582
PC40   -847.229754  36151.464866  21843.009995    179.907163
PC41   1898.355402  26321.047097  -9027.093180   -958.906164
PC42 -17259.502197  -6021.699558 -21036.410988 999999.999999
PC43 -20061.100997  19070.407472   3460.093014   -818.360854
PC44  -9377.579526 -13310.328257  22653.392968    286.128694
PC45    360.617179 -16342.053939 -22607.035116    491.751095
PC46  27427.258007   4072.453707  -2987.396425    182.030031
PE01  24717.109328  14545.131838  -7324.879303  -1148.718320
PE02 -24742.149864 -14444.524313   7461.595902    232.459867
PE03 -15432.088147  -8807.879564 -23668.905885   -451.951992
PE04  16972.708984 -13235.570457  20327.928726   -811.946073
PE05  -4795.279951 -26070.331693 -13160.947594   -265.716180
PE07  -8495.847017  27939.970082  -4870.670167   -560.885036
PE08 -16716.988602  13719.532800 -20213.541882   5971.383684
PE09   8239.863795 -28022.538072   4743.402065   5602.655227
PE11  14463.364146 -18141.398080  18373.841971   5728.856999
PE12  27609.146193 -10673.926946    689.969384   5114.358621
PE13 -14830.452479  18094.283778 -18134.534708    418.935973
PE14   1086.765899  28010.314985 -15014.358943  -1497.994710
PE15 -27554.535978  10786.194978   -733.914868    803.843006
PE18   5149.744127 -23175.346314   6178.935027  -1641.683983
PE19  14457.539283  11320.017542  23226.116162    325.223398
PE21  15714.256763  22711.982311  10657.846957   -675.866496
PE24   3791.327929 -17667.914026 -23454.398998  -1004.365513
PE25 -15557.863202 -22729.175087 -10827.359069   -539.793082
PE26   7539.623919  14536.629078 -24661.126960   1586.889337
PE27  -2809.944111  18148.337966  23221.354751    -74.237305
PE30 -20209.208174   1942.438262  21538.956995   2789.360003
PE31  19539.969982  -2943.164370 -22028.300567   -483.181165
PE33  24026.069562   2856.021632 -17057.931145   -467.783142
PE36  -6579.919091 -14734.120981  24810.575310   -233.531728
PG01   6022.412374  13915.842177 -22108.167689    630.254923
PG02  18013.368076 -14369.267549  13916.387006   -619.113218
PG03  10642.689156  22687.986976  -9059.679511   -218.671578
PG04   1711.326177  22233.313042  14391.641263   -202.211520
PG05   -210.605596 -19316.286545  17991.838986    -47.715707
PG06  25332.133587  -6974.911546   4152.140926     39.186558
PG07  20335.870063   8128.515669  15730.053129    200.825083
PG08  -5352.679596  25374.090036  -4935.744169    -28.568598
PG09  10660.146161  13209.298819  20363.381348   -355.201462
PG10 -19940.238379  -6545.494385 -16323.886240   -160.722945
PG11  19696.421769 -11611.798047  13497.754666     13.995317
PG12  -8423.644049 -23380.810590  -9811.354678    -67.713994
PG13  13185.930581 -22924.930822   1240.764751    156.846608
PG14  19659.008881   6636.297168 -16612.391949     48.911428
PG15   2051.355614 -25781.095224  -5535.800200   -135.992043
PG16  -6881.247570  14790.820150  20612.841362   -356.048514
PG17  15985.975916  -1920.996446 -20697.975302    472.775438
PG18 -22081.592505  -6154.115587  13468.086515    341.409307
PG19  17852.963814 -10481.151752 -16840.630258     25.448481
PG20   9064.415881 -12871.417476  21360.526437    520.259220
PG21  -2589.090590  15556.946782 -20589.351499    130.851906
PG22   4941.163138  20963.559233 -15491.151857   -565.262145
PG23 -20236.625572 -15682.294587  -7205.581556     85.498145
PG24  -1188.814036 -15980.722198 -21403.467899    171.595242
PG25 -17156.990979 -20460.403981    230.596260    172.330889
PG26 -15060.216501   6116.548121  20984.778463    109.771657
PG27 -12205.430761  22756.924595   5137.224515   -161.847746
PG28  17093.550451   1304.444779 -19688.036777    538.990101
PG29  -8030.809247 -14961.375848  20356.349835   -379.112535
PG30  26276.378234   -218.402213   4734.053523   -450.002017
PG31 -25027.218827   7637.172864   5737.711715   -128.261816
PG32 -16750.160924   5326.995426 -19745.896032     14.409474
PJ01 -20380.947704  27955.448100 -19557.031192   -414.265640
PJ02 -26887.316822  20687.374692  29969.044129     -0.744632
PJ03 -33465.887895  25825.351837   4268.483295     -0.163508
PR01   6727.573169 -16124.282277  18581.666238     82.216421
PR02  -2707.609397 -25392.489046    452.703597    485.796455
PR03  -9685.111722 -17519.218337 -15797.154536     39.375492
PR04 -10861.089020     83.438069 -23051.397460     95.488348
PR05  -6158.689330  17572.118614 -17411.272329     75.225710
PR07   9876.766914  16860.711624  16410.568360    -42.060953
PR08  11002.392700   -221.915746  23068.297587    -59.907506
PR09   7502.975493  13793.905571  20147.036201      2.577637
PR11  23016.518979   4162.776809 -10182.104384    -21.107262
PR12  10978.350778  -6754.212357 -21977.900141    244.768731
PR13  -6768.768061 -13408.074338 -20625.286034    -57.602611
PR14 -21298.144205 -12363.827992  -6591.603536     66.398886
PR15 -22788.805273  -4067.946557  10732.484657    102.724247
PR16  -9946.660486   7697.581915  22194.280277    -17.800711
PR17 -10303.360026  -5219.060882  22749.049890    440.508921
PR18 -20273.727298   7335.946391  13600.087569     83.202318
PR19 -20345.135839  15268.500903  -1964.930598   -151.266682
PR20  -6932.514844  15228.328276 -19238.236274    -52.369757
PR21  11206.989297   4322.135379 -22505.566165   -223.394555
PR22  20666.331260  -8002.773423 -12734.383264   -122.320910
PR24   5800.167629 -15432.498008  19466.500598     50.191424
EOF
